<?xml version="1.0" encoding="UTF-8"?>
<kml xmlns="http://www.opengis.net/kml/2.2" xmlns:gx="http://www.google.com/kml/ext/2.2">
    <Document id="8">
        <Style id="11">
            <LineStyle id="12">
                <color>641400F0</color>
                <colorMode>normal</colorMode>
            </LineStyle>
            <PolyStyle id="13">
                <color>641400F0</color>
                <colorMode>normal</colorMode>
                <fill>1</fill>
                <outline>1</outline>
            </PolyStyle>
        </Style>
        <open>1</open>
        <Placemark id="10">
            <name>Rocket Trajectory - Powered by RocketPy</name>
            <styleUrl>#11</styleUrl>
            <LineString id="9">
                <extrude>1</extrude>
                <altitudeMode>absolute</altitudeMode>
                <coordinates>-8.172108,39.232465,191.0 -8.172108,39.232465,191.0 -8.172108000000051,39.232464999999436,191.00000059526073 -8.172108000000724,39.232464999991954,191.00000853698847 -8.172108000002924,39.2324649999676,191.0000344028812 -8.172108000008466,39.23246499990621,191.00009957447136 -8.172108000019287,39.23246499978634,191.0002268455214 -8.172108000835745,39.23246499074236,191.0098290291908 -8.172108004328692,39.232464952050634,191.05090881786916 -8.17210801244677,39.232464862125866,191.14638379453416 -8.172108027158124,39.23246469916675,191.31940082749443 -8.172108201390484,39.23246276917751,193.36850997554478 -8.17210848117839,39.23245966993876,196.6590353011794 -8.172108501156961,39.2324594486341,196.89399900261984 -8.17210852168398,39.232459221254246,197.13541284697166 -8.17210854276702,39.23245898771527,197.38336596079807 -8.17210855135739,39.232458892558874,197.4843954722585 -8.172108560038254,39.23245879640007,197.58648924689967 -8.172108568809728,39.23245869923757,197.68964866213815 -8.172108586624582,39.2324585019006,197.89916536190455 -8.17210860480209,39.232458300546504,198.1129471468618 -8.172108623342396,39.23245809517366,198.33099569122766 -8.172108787620374,39.23245627544977,200.26303386845376 -8.172108797497756,39.232456166253435,200.37880794424387 -8.17210880748235,39.23245605608673,200.49545035792858 -8.172108827666108,39.232455833812395,200.73047216375093 -8.172108848279262,39.23245560765564,200.96896852995732 -8.172108869322036,39.232455377615594,201.21094066203227 -8.172109037833032,39.23245355887543,203.10527318408865 -8.172109228571978,39.23245152852904,205.18965426744023 -8.172109438833132,39.2324492872792,207.46456987290028 -8.172109664123449,39.232446836431,209.93051029242292 -8.172109795502031,39.23244536147219,211.40668925924814 -8.172109928243655,39.232443820763976,212.94395264896698 -8.172110060754903,39.23244221476248,214.5423877246132 -8.172110242153323,39.232439866798224,216.8739054462873 -8.172110414214963,39.232437394271116,219.32481154933626 -8.172110571118955,39.232434798669594,221.89532874756154 -8.172110706436841,39.23243208154441,224.58568136084537 -8.172110775145798,39.2324303747221,226.27617787931675 -8.172110831852718,39.23242862406176,228.0108996815868 -8.172110874980683,39.23242682986549,229.78989347324364 -8.172110902952516,39.23242499240969,231.61320495327493 -8.172110914361365,39.23242288635534,233.70504775033862 -8.17211090272471,39.23242072677949,235.85244534048456 -8.172110865990042,39.232418513902104,238.05545681365723 -8.172110802218352,39.23241624786613,240.314139882692 -8.172110709615444,39.232413928729024,242.6285513256498 -8.172110586562654,39.232411556455695,244.99874710027188 -8.172110431646129,39.232409130913624,247.42478189445325 -8.172110146661684,39.23240550206183,251.05853387034176 -8.172109789049934,39.232401758736955,254.8108284035911 -8.17210935753625,39.23239789964036,258.6815204477116 -8.172108852158019,39.23239392307827,262.6704489609316 -8.172108108884586,39.232388719642856,267.88720339080237 -8.17210725494986,39.232383320109626,273.29271636105506 -8.17210629822737,39.23237771949387,278.8866622976857 -8.172105248212095,39.23237191293721,284.66871238330447 -8.172104114843156,39.232365896184305,290.6385316422259 -8.172102907329498,39.232359665965134,296.79577609962746 -8.172101632915274,39.23235322030405,303.1401042839302 -8.172100295887308,39.232346558674244,309.6711748321644 -8.172098896932686,39.23233968196551,316.38864717561245 -8.172097433020793,39.23233259224521,323.29217835546416 -8.172095897846,39.23232529233566,330.3814177033267 -8.172095511537561,39.232323479818575,332.1391318667076 -8.172095120343679,39.232321655013216,333.90787272270956 -8.172094724126817,39.23231981795943,335.68763475807015 -8.172094322748736,39.23231796869454,337.4784123874826 -8.172093914883975,39.232316101884656,339.2853971419271 -8.172093501556109,39.23231422285845,341.1034494602664 -8.172093082634733,39.2323123316432,342.9325634937661 -8.172092043781191,39.23230769913079,347.41002444591857 -8.172090969757335,39.23230299541861,351.9522961423049 -8.172089859333243,39.232298220552984,356.5592894811196 -8.172088711624792,39.23229337442877,361.2309098676283 -8.172087526210053,39.23228845677436,365.9670593827854 -8.172086303143566,39.23228346716725,370.76763700145045 -8.17208504293698,39.23227840506541,375.63253897156613 -8.172083258909108,39.23227135529913,382.3977174970801 -8.17208141026261,39.232264166753986,389.2830219328815 -8.172079500761084,39.23225683785687,396.2881862720693 -8.172077534068695,39.23224936737728,403.4129354984459 -8.17207551302845,39.232241754604075,410.6570006699893 -8.172073485496707,39.23223417178065,417.8566265712076 -8.17207140761823,39.23222645314076,425.16985319819497 -8.172069507249635,39.23221944152449,431.8008199701594 -8.172067971873087,39.23221381231891,437.11661472709903 -8.172066408611812,39.23220811629961,442.4889673443675 -8.172064816373426,39.232202353793,447.9177834947164 -8.172063194122796,39.23219652505168,453.40296555983184 -8.17206154098354,39.23219063022952,458.9444117224132 -8.17205985631841,39.232184669365566,464.5420178355366 -8.172058139785543,39.23217864238022,470.1956790839229 -8.17205639136368,39.232172549085696,475.90529019162767 -8.172054175531358,39.232164887279204,483.0754907080034 -8.172052378172912,39.23215871659227,488.842591542684 -8.172050551373777,39.2321524801298,494.6640219693732 -8.172048695937397,39.2321461776021,500.53967756759636 -8.17204681262165,39.23213980878638,506.46945379588624 -8.172044902046366,39.2321333735503,512.4532459501967 -8.17204296462253,39.23212687186322,518.4909490827039 -8.172041000503947,39.232120303784015,524.5824683820389 -8.172039009576245,39.23211366944769,530.7277186728588 -8.172036500657725,39.23210534323745,538.429633749947 -8.172034528792917,39.23209882730976,544.449259467609 -8.172032530598319,39.23209225076272,550.5183151047652 -8.17203050549216,39.232085613729566,556.6367407399811 -8.17202845297729,39.23207891628624,562.8044744239664 -8.172026372697491,39.232072158438754,569.0214537457034 -8.172024264474997,39.23206534012177,575.287615771042 -8.172022128324457,39.23205846120952,581.6028952387063 -8.172019964439725,39.232051521535034,587.9672234269714 -8.172017508328103,39.23204367658476,595.1535514937806 -8.17201501842116,39.232035754920695,602.4012254658759 -8.17201249530487,39.23202775632779,609.7101528478725 -8.172009939459198,39.232019680667634,617.0802422026477 -8.17200735116823,39.232011527897434,624.5114005116442 -8.172004730472299,39.232003298071085,632.0035298076012 -8.172002077169411,39.23199499131803,639.5565278815146 -8.171999390864478,39.23198660780458,647.1702930535547 -8.171996671057444,39.23197814769184,654.8447262780195 -8.171993917251026,39.23196961110025,662.5797294522021 -8.171991129053193,39.231960998084666,670.3752034057076 -8.17198830625311,39.231952308626845,678.2310446168086 -8.171985448854219,39.231943542645055,686.1471424540454 -8.1719825570532,39.231934700010825,694.1233847813301 -8.171979631184188,39.231925780574954,702.1596625057822 -8.171976671629269,39.23191678420583,710.2558679492973 -8.171973678721585,39.23190771082524,718.4118900085489 -8.171970282629431,39.23189744304678,727.6302083208841 -8.17196684488034,39.231887078490566,736.9234471066603 -8.17196406527289,39.23187871954621,744.4098415203608 -8.171961258682325,39.23187029898689,751.9438908377357 -8.171958424937525,39.23186181698384,759.5254243754962 -8.171955563906053,39.23185327369788,767.1542581445926 -8.171952675506112,39.231844669245106,774.8302231717956 -8.171949759727505,39.2318360037027,782.5531596161833 -8.171945717021721,39.231824021618635,793.219518030351 -8.171941623406868,39.23181192493091,803.9734223344135 -8.171937479412772,39.231799713809885,814.8144090806949 -8.171933285488246,39.23178738849772,825.7420201842277 -8.171929041864123,39.231774949333456,836.7558008056624 -8.171924748527685,39.23176239673407,847.8552921460193 -8.171920405306322,39.23174973114016,859.0400290639607 -8.171916012013863,39.231736952955444,870.3095428425113 -8.171911568589017,39.23172406251189,881.6633635777639 -8.171907075179062,39.231711060073366,893.1010197124866 -8.171902532116682,39.23169794588023,904.622036297861 -8.171897939801056,39.23168472020651,916.2259347772343 -8.171893298554256,39.23167138339955,927.9122302777317 -8.171888608536094,39.2316579358842,939.6804251961842 -8.17188386975647,39.23164437812436,951.5300119398622 -8.171879082167171,39.23163071056316,963.4604871762468 -8.171874245779351,39.23161693359028,975.471355910931 -8.171869360741253,39.231603047559005,987.5621164758442 -8.171864427328948,39.23158905282092,999.7322520463595 -8.171859445843037,39.231574949708,1011.9812774779102 -8.171854416485463,39.231560738488554,1024.3087997453931 -8.171849339313777,39.231546419378404,1036.7145081386395 -8.171844214292195,39.23153199260275,1049.1981011821192 -8.171839041379346,39.231517458428144,1061.7592356051987 -8.171833820598179,39.231502817133595,1074.3975339814483 -8.171828552066907,39.23148806896847,1087.1126143703066 -8.171823235980574,39.231473214140955,1099.9041083391417 -8.171817872549163,39.23145825284297,1112.7716625348787 -8.17181246192529,39.231443185283815,1125.7149356405603 -8.171807004167594,39.231428011704025,1138.733596297355 -8.171801499270867,39.231412732369115,1151.8273132765994 -8.171795947244473,39.23139734755236,1164.99574042393 -8.171790348173333,39.2313818575078,1178.2385182415887 -8.171783971926468,39.231364247058785,1193.2751121845097 -8.171777536183148,39.23134650310149,1208.4055033081156 -8.171771041137097,39.231328625949395,1223.6292178603023 -8.17176448689898,39.23131061597957,1238.945766661132 -8.171757873534938,39.23129247362623,1254.35462369855 -8.171751201138834,39.231274199327075,1269.8552389753943 -8.171744469886804,39.231255793485246,1285.4470594286772 -8.171737680020723,39.231237256487795,1301.1295370420144 -8.171730831794722,39.231218588789645,1316.9020954113173 -8.171723925501059,39.23119979105669,1332.7640105105213 -8.171716961508084,39.23118086422328,1348.7143309024718 -8.17170994022356,39.23116180933586,1364.751986747271 -8.171702077553768,39.23114050294668,1382.6604265186877 -8.1716941455017,39.231119041397776,1400.673706228279 -8.171686144809836,39.23109742622918,1418.7902735152563 -8.171678076218525,39.23107565904417,1437.008570483666 -8.171669940429032,39.23105374149678,1455.3270243888473 -8.171661738091782,39.23103167522431,1473.7440493808565 -8.17165346986106,39.23100946180232,1492.258053320671 -8.171645136473877,39.23098710278509,1510.8674476820918 -8.171636738740636,39.23096459977936,1529.5706703504454 -8.171628277371711,39.23094195445444,1548.3662202189869 -8.171619752839767,39.23091916841873,1567.252677769308 -8.171618486740403,39.230915786578116,1570.0535619503564 -8.17161721926838,39.23091240169296,1572.8564006662987 -8.171615950426894,39.23090901376661,1575.661189440114 -8.171614680218875,39.23090562280273,1578.4679238727397 -8.171613408647247,39.230902228805,1581.27659959041 -8.171610861426169,39.230895431722445,1586.8997572719502 -8.171608308789684,39.2308886225488,1592.5306273273397 -8.171605750764392,39.23088180131528,1598.1691744853904 -8.17160318737638,39.23087496805487,1603.8153634332477 -8.171597301071154,39.23085928525835,1616.7650847326802 -8.171591387039888,39.23084354011604,1629.7542210831602 -8.171585445460753,39.23082773310278,1642.7823532469295 -8.171579476468823,39.23081186470255,1655.8490599807747 -8.17157860630162,39.23080955235224,1657.752147740641 -8.171577735557875,39.23080723871627,1659.6560402822934 -8.171576864239633,39.230804923799575,1661.560733287647 -8.171575599498492,39.23080156407139,1664.324637268821 -8.171574333567467,39.230798201691734,1667.0901885777928 -8.171573066458366,39.230794836687075,1669.8573645203649 -8.171568744251353,39.23078336204416,1679.2893903607692 -8.171564409083867,39.23077185847251,1688.738960360914 -8.171560061444158,39.23076032700764,1698.2051860163515 -8.171559142438493,39.230757890245876,1700.2045952872008 -8.171558222909908,39.230755452310746,1702.204687674334 -8.171557299402695,39.23075300403833,1704.212978813352 -8.171557227544188,39.23075281353851,1704.3692420400025 -8.171557155682526,39.2307526230316,1704.5255093715346 -8.171557127331052,39.230752547871404,1704.587160856972 -8.171557098979088,39.23075247271009,1704.6488129808122 -8.17155704227418,39.23075232238528,1704.7721185046164 -8.171557030932924,39.23075229231969,1704.7967799667163 -8.171557022966239,39.23075227120009,1704.8141034198147 -8.171557014999584,39.230752250080556,1704.8314267959297 -8.171557008322443,39.2307522323795,1704.8459461322216 -8.171557001645322,39.2307522146785,1704.8604654144335 -8.17155693487518,39.23075203767082,1705.0056555326644 -8.171556868107144,39.23075186066785,1705.150840243327 -8.17155680134121,39.23075168366961,1705.296019546844 -8.171556133797532,39.230749913946354,1706.7475153167688 -8.17155546646408,39.23074814469424,1708.1984708365362 -8.17155479934071,39.23074637591279,1709.6488865278475 -8.171551692634399,39.23073813778859,1716.4021897341001 -8.171548590472515,39.23072990983731,1723.1438156375827 -8.171545492838241,39.230721692021824,1729.873802222234 -8.171543310645411,39.23071590168976,1734.613795661275 -8.171541130690022,39.23071011637398,1739.3480272923746 -8.171538952965049,39.23070433606413,1744.076508776124 -8.171535954015622,39.23069637450618,1750.5866137399084 -8.171532959271826,39.230688422413984,1757.0858418279722 -8.171529968711639,39.230680479751335,1763.574228814179 -8.171523974082056,39.230664553543534,1776.574937619344 -8.17152247803339,39.23066057788509,1779.8183280933422 -8.171520983016253,39.23065660457379,1783.059013516655 -8.171519489015932,39.23065263360573,1786.2969975780936 -8.171517303457096,39.23064682396306,1791.0328384375637 -8.17151511999974,39.23064101932096,1795.7629098134669 -8.171512938611318,39.23063521966548,1800.4872244797004 -8.171509609211311,39.23062636689173,1807.6952939322962 -8.171506284538559,39.2306175256791,1814.8899968072883 -8.171502964585187,39.23060869597539,1822.0713814596552 -8.171499649397395,39.230599877735635,1829.239490363353 -8.171496339050343,39.23059107091709,1836.3943645056402 -8.17149303362417,39.23058227547475,1843.5360471737383 -8.171489733182346,39.23057349135858,1850.6645862687847 -8.171485640531307,39.230562595893566,1859.501047742503 -8.171481555610628,39.23055171774904,1868.317381323819 -8.17147747833002,39.23054085684776,1877.1136638284313 -8.171473408529462,39.23053001311115,1885.8899723279378 -8.171469346010445,39.23051918645098,1894.6463905272497 -8.171465290577142,39.23050837677082,1903.383007571359 -8.171461242073514,39.23049758397071,1912.0999144981547 -8.171457200405989,39.23048680795075,1920.7972019421766 -8.17145316554698,39.23047604861161,1929.4749602721276 -8.17144913752092,39.2304653058539,1938.1332805433312 -8.171445116379616,39.23045457958045,1946.77225298891 -8.171441102171785,39.23044386969459,1955.3919682707115 -8.171437094913315,39.230433176091644,1963.992524015699 -8.171433094574088,39.230422498666194,1972.574018494043 -8.171429101077665,39.23041183731923,1981.1365444123521 -8.171425114309793,39.230401191956396,1989.6801898231167 -8.171420566232321,39.23038904570843,1999.4210043965477 -8.171416026567647,39.23037692008176,2009.1373949556908 -8.171411495144145,39.23036481494255,2018.8294828824428 -8.171406971861286,39.23035273015349,2028.4973920959433 -8.171402456689096,39.23034066556672,2038.1412506826343 -8.171396294130863,39.230324196459705,2051.29306628637 -8.171391388256856,39.23031108321383,2061.754316959359 -8.171386492003847,39.230297993286236,2072.1874695471156 -8.171381605266939,39.23028492650304,2082.5926812702232 -8.171376727897712,39.23027188274546,2092.970101844183 -8.171371859729403,39.23025886192165,2103.3198781405545 -8.17136700060883,39.23024586393994,2113.642149665592 -8.171362150417522,39.23023288868159,2123.937050421381 -8.171357309078559,39.23021993599072,2134.204710914677 -8.171351032567243,39.23020314180585,2147.5035467682887 -8.171344770851677,39.23018638498495,2160.7569002562777 -8.171338523821282,39.230169665122396,2173.96507009253 -8.171332291311176,39.23015298189829,2187.1283399935837 -8.171326073097989,39.230136335068835,2200.2469843907916 -8.171319025159466,39.23011746525886,2215.098240947801 -8.171311995014753,39.23009864184692,2229.8926127566233 -8.171304982394936,39.230079864428845,2244.63048169839 -8.171297987143026,39.23006113250995,2259.312214837484 -8.17129100915577,39.230042445512865,2273.9381992328963 -8.171285274076807,39.23002708590212,2285.94441103466 -8.171280761210989,39.230014998982945,2295.3825912658067 -8.171276255502882,39.23000293059942,2304.7976450949304 -8.171272611239134,39.22999316884103,2312.4068797219065 -8.171268971855232,39.229983419162984,2320.0010487543595 -8.171265337434901,39.22997368152189,2327.5801962748246 -8.171261707999424,39.22996395586752,2335.1443658591174 -8.171258083493468,39.22995424213845,2342.693605566326 -8.171254463799334,39.22994454026942,2350.2279639987255 -8.171250848761863,39.22993485019421,2357.7474902345384 -8.171246863723784,39.229924167982404,2366.0303214618048 -8.171242883982645,39.22991349999478,2374.295196544941 -8.171238909421021,39.22990284617021,2382.542171084533 -8.171234939997019,39.22989220644937,2390.7713039276978 -8.171231603338272,39.22988326293845,2397.6831693130557 -8.171228270401116,39.22987432933221,2404.5824864603255 -8.171225511176154,39.22986693332317,2410.2906293546453 -8.171222754582596,39.22985954407705,2415.9901958763053 -8.171220000650225,39.229852161574826,2421.6812051263087 -8.17121621268534,39.229842006379094,2429.5041314498994 -8.171212429835292,39.22983186388638,2437.310910452536 -8.171208652090671,39.22982173403121,2445.1015985803833 -8.171204879390649,39.2298116167459,2452.876251059171 -8.171200542418397,39.229799985293376,2461.8065767713883 -8.17119621183964,39.22978837031377,2470.7158006126756 -8.171191887484676,39.22977677172311,2479.6039932340354 -8.17118756923772,39.22976518944777,2488.4712218354653 -8.171183257056194,39.22975362341871,2497.3175542544172 -8.171177982824993,39.229739476779216,2508.12616040024 -8.17117271782772,39.2297253542559,2518.9036677372933 -8.171167462179818,39.22971125569354,2529.650223455746 -8.171162215945715,39.22969718092888,2540.365975300405 -8.171156979100347,39.2296831297979,2551.051066025332 -8.17115175152379,39.229669102134956,2561.705635956151 -8.1711465330544,39.22965509779787,2572.329822377905 -8.171141323555151,39.229641116687155,2582.923763934137 -8.171136122954573,39.2296271587344,2593.487598876337 -8.17113093123477,39.229613223855424,2604.021464189287 -8.171125748393044,39.22959931191002,2614.5254941182634 -8.17112057441061,39.22958542269767,2624.9998180985285 -8.171115409238993,39.2295715559803,2635.4445649242557 -8.171110252805711,39.22955771152576,2645.8598630264764 -8.171105105026998,39.229543889141226,2656.2458426463177 -8.171099965823789,39.22953008869332,2666.6026322103853 -8.171094835134676,39.22951631010788,2676.9303521115608 -8.171088301806948,39.22949876334407,2690.0642191691563 -8.171081782200673,39.229481251939,2703.151217442064 -8.171075276265595,39.22946377569072,2716.191585786513 -8.171068783942774,39.22944633430754,2729.185557965233 -8.171062305139227,39.22942892741113,2742.133382983953 -8.171055839746717,39.229411554647974,2755.0352879370907 -8.171049387642318,39.22939421571457,2767.89150209694 -8.171042948704,39.22937691037415,2780.702263019962 -8.171035872434492,39.22935789017816,2794.7587994330156 -8.171028811918063,39.229338910339095,2808.7607790722764 -8.171021767078418,39.22931997062279,2822.708496134526 -8.171014737839698,39.229301070707066,2836.602233130092 -8.17100772409867,39.22928221018137,2850.442272236967 -8.171000725720432,39.22926338861587,2864.2288957781157 -8.170993742559924,39.229244605653875,2877.962376156406 -8.170986774481309,39.22922586103498,2891.642987444546 -8.170979821375086,39.22920715456863,2905.271008107546 -8.170972883164517,39.22918848608264,2918.8467084212807 -8.17096595979158,39.22916985536408,2932.3703412706113 -8.170959051181919,39.229151262102064,2945.8421599299127 -8.170952157225212,39.229132705903154,2959.262425546202 -8.170945277785872,39.229114186374524,2972.6313951923685 -8.170938412729852,39.22909570320593,2985.949311381667 -8.17093156194806,39.22907725619499,2999.2164044409296 -8.170924725358542,39.22905884519443,3012.432912082019 -8.170917902896395,39.229040470040026,3025.5990856365474 -8.170911094500262,39.22902213050887,3038.715174822132 -8.170904300096868,39.22900382631285,3051.7814130156703 -8.170897519589419,39.22898555712117,3064.7980174595136 -8.17089075286122,39.228967322607154,3077.765198789579 -8.170883999786067,39.228949122477104,3090.6831828946397 -8.170877260250192,39.22893095649642,3103.5522097806397 -8.170870534171062,39.228912824495495,3116.372514185573 -8.170863821473587,39.228894726314785,3129.1443131360857 -8.170858936763173,39.228881555270064,3138.4235345421657 -8.170854058939415,39.22886840185776,3147.677165082401 -8.170849187869388,39.22885526588034,3156.9052804989487 -8.170844323459445,39.22884214717453,3166.1079573127513 -8.170839465671872,39.22882904562584,3175.2852801065737 -8.170834614524278,39.228815961175094,3184.4373380584557 -8.17082977007374,39.228802893811256,3193.5642180694576 -8.170824932390063,39.22878984354773,3202.666002183529 -8.17082010152727,39.22877681039212,3211.742768400921 -8.170815277501838,39.22876379432085,3220.7945921531996 -8.170810460282683,39.22875079526537,3229.821547202018 -8.17080564979395,39.22873781311181,3238.8237060116003 -8.170800845928426,39.22872484771215,3247.8011399796364 -8.170796048567198,39.228711898902496,3256.75391974619 -8.170791257600317,39.22869896652354,3265.6821155830203 -8.170786472943496,39.22868605043799,3274.5857977602327 -8.170781694545639,39.22867315053681,3283.4650398358385 -8.170776922387438,39.22866026673672,3292.3199219175413 -8.170772156477254,39.22864739898321,3301.1505244253826 -8.170766772428298,39.22863286116755,3311.11129364231 -8.170761396445199,39.228618343811206,3321.0411934548665 -8.17075602854922,39.22860384687226,3330.940323675647 -8.170750668713401,39.228589370266455,3340.8087810018387 -8.170745316859465,39.22857491385962,3350.646661026201 -8.17073755565642,39.228553947157536,3364.884904335901 -8.170731473743947,39.22853751548227,3376.018440399473 -8.17072540170145,39.2285211092815,3387.112638096586 -8.170719339447519,39.228504728370105,3398.167636487319 -8.170713286958117,39.228488372619154,3409.183574492315 -8.170707244243784,39.22847204193698,3420.1605906642158 -8.1707012113178,39.22845573623995,3431.098822607535 -8.170695188167489,39.228439455424855,3441.9984063261404 -8.170689174738483,39.22842319935242,3452.859475810793 -8.170681949124473,39.22840366446626,3465.882061265015 -8.170674737238286,39.22838416479367,3478.8492840806002 -8.170667538860135,39.228364699944905,3491.7613957893755 -8.17066035382168,39.22834526958753,3504.6186302846763 -8.170653182022098,39.228325873456235,3517.421210881323 -8.170644815353063,39.2283032436898,3532.3176387258427 -8.170636466665838,39.22828066009864,3547.140030866464 -8.17062813588508,39.228258122364835,3561.8887298388568 -8.170619822846211,39.228235630102596,3576.564074905039 -8.17061152729989,39.228213182857615,3591.166399961523 -8.170602775465474,39.22818949869419,3606.525817270021 -8.170594042599888,39.22816586378047,3621.8043633516218 -8.170585328532141,39.22814227766438,3637.0024187359595 -8.170576633192068,39.228118739982314,3652.120361708564 -8.170567956542248,39.228095250414825,3667.1585671451667 -8.170566315690905,39.228090807977026,3669.997155832502 -8.170564675505164,39.22808636724954,3672.8329012973536 -8.170563035982033,39.22808192822813,3675.665805975264 -8.17056139711915,39.22807749090903,3678.49587230877 -8.170558121366298,39.228068621363846,3684.1474997059827 -8.1705548482302,39.228059758585545,3689.7878029619064 -8.170551577694772,39.22805090254558,3695.41680146053 -8.170548309744339,39.22804205321556,3701.0345144956464 -8.170538031179584,39.22801421794103,3718.658938155429 -8.170531678097463,39.22799701224862,3729.518108881487 -8.170526747281276,39.22798365839015,3737.9278395301153 -8.170521821904078,39.22797031975258,3746.3119584999845 -8.170516901822213,39.22795699635719,3754.6705311609085 -8.170511986952313,39.22794368818909,3763.0036220217726 -8.170507077287823,39.22793039518141,3771.3112945277576 -8.170502172887302,39.22791711721847,3779.5936110498665 -8.170497273849888,39.227903854148934,3787.850633011573 -8.1704923802852,39.22789060580499,3796.0824211205672 -8.170487492283918,39.227877372022895,3804.2890356475746 -8.170482609894867,39.227864152661056,3812.47053668725 -8.17047773311222,39.227850947612055,3820.626984352064 -8.17047286187405,39.22783775680752,3828.7584388701534 -8.17046799607135,39.22782458021514,3836.8649605789274 -8.17046256101619,39.227809861929785,3845.900858432261 -8.170457132377436,39.227795161435346,3854.9057298038156 -8.170451709957044,39.227780478763975,3863.8796521899008 -8.17044629362415,39.22776581392433,3872.822696200404 -8.170440883324064,39.227751166867144,3881.7349357966546 -8.170434175123653,39.22773300786983,3892.7562848307557 -8.170427476326031,39.2277148758135,3903.7304415116164 -8.17042078704582,39.227696770384576,3914.657557973714 -8.170414107354715,39.22767869129124,3925.5377818485717 -8.17040743723631,39.22766063829556,3936.3712593008986 -8.170400776572794,39.22764261122807,3947.1581369199357 -8.17039412516519,39.22762460998181,3957.898561708924 -8.170387482777073,39.227606634488616,3968.592680189826 -8.170380849184841,39.22758868468599,3979.2406375794826 -8.170374224217746,39.22757076048621,3989.8425773310055 -8.17036760777668,39.22755286175727,4000.398640957174 -8.170359817496498,39.227531790527856,4012.786146161104 -8.170352039037677,39.22751075410918,4025.1102946510177 -8.170344272421747,39.227489752135256,4037.3713093391584 -8.170336517622204,39.22746878427339,4049.569406771479 -8.170328774535124,39.2274478502709,4061.704789097382 -8.17032104297533,39.22742694994618,4073.77765370823 -8.1703133227011,39.227406083143485,4085.78820879063 -8.170305613466827,39.22738524970784,4097.7366680827345 -8.17029756696749,39.227363508997634,4110.159668368499 -8.170289532160776,39.22734180428701,4122.515300545271 -8.170281508952312,39.22732013527956,4134.803801727571 -8.170273497295259,39.22729850164596,4147.0254045345255 -8.170265497147925,39.22727690304904,4159.180338884995 -8.170257508452039,39.22725533920238,4171.268813656053 -8.170249531092002,39.227233809831716,4183.291048880016 -8.170242982929386,39.22721614068531,4193.122584801328 -8.17023644218396,39.22719849456785,4202.90964837059 -8.17022990874588,39.22718087137752,4212.652353590801 -8.170220649381074,39.22715590109678,4226.402487575215 -8.170211404284535,39.22713097643964,4240.063843987453 -8.170203986575256,39.22711098372467,4250.975870908081 -8.170196577865378,39.22709101996482,4261.831003997221 -8.170189178122945,39.22707108495071,4272.629396561565 -8.170181787310222,39.22705117844193,4283.3712149338635 -8.170170741901666,39.2270214368086,4299.343328808744 -8.170162763625887,39.2269999601454,4310.819451843795 -8.170154795440105,39.22697851608577,4322.22992221709 -8.170146837159587,39.22695710441883,4333.574950205223 -8.170138888594149,39.22693572494822,4344.854742650386 -8.170130038428706,39.2269119278083,4357.353333573107 -8.170128727216532,39.22690840277664,4359.199634960949 -8.170127416264942,39.226904878614576,4361.044165540096 -8.170126105575614,39.226901355322,4362.886926121344 -8.170123484992862,39.22689431134447,4366.567142056043 -8.170120865479909,39.226887270842404,4370.240289243062 -8.170118247048245,39.22688023381317,4373.9063746981265 -8.170110962197091,39.22686065857061,4384.076865089406 -8.170104929168046,39.22684444995361,4392.467384110505 -8.170098902048943,39.226828259632704,4400.820504164112 -8.170092880772671,39.22681208747393,4409.1363098825595 -8.1700868652105,39.2267959333355,4417.414876627233 -8.170080855189322,39.22677979706214,4425.6562803607485 -8.170074850521763,39.226763678505925,4433.860594185834 -8.170068851029844,39.22674757752486,4442.02789494402 -8.1700617328943,39.22672847954656,4451.6789644738 -8.170054621707362,39.226709406006634,4461.278085674992 -8.170047517419585,39.22669035677856,4470.825394950847 -8.170040420074324,39.22667133178086,4480.321022555706 -8.170033329776409,39.22665233095664,4489.765093664653 -8.170026246648465,39.22663335424301,4499.157733566908 -8.170019170789052,39.22661440154921,4508.49906989993 -8.170012102241737,39.226595472748244,4517.789231530838 -8.170005040979438,39.226576567678364,4527.028346453572 -8.169997986908298,39.22655768616176,4536.216535273403 -8.169989273566818,39.226534369557456,4547.508403284411 -8.169980570663157,39.22651108831982,4558.722789532286 -8.16997187783694,39.22648784208417,4569.8599149066795 -8.169963194818417,39.2264646305406,4580.920000085816 -8.16995452147986,39.22644145345598,4591.903260219551 -8.16994585781914,39.2264183106474,4602.809908896669 -8.169937203905565,39.22639520193879,4613.6401641428 -8.16992855981802,39.22637212713154,4624.394248248619 -8.169917909595126,39.22634370722438,4637.556418113897 -8.169909459766993,39.22632116681193,4647.930254114085 -8.169901019261951,39.22629865821504,4658.231567764179 -8.169892587911349,39.22627618115393,4668.46054721046 -8.16988416551817,39.2262537353507,4678.617375941425 -8.169873997084773,39.22622664655028,4690.79784028868 -8.16986384115615,39.22619960256764,4702.873489617639 -8.169853697538521,39.2261726030189,4714.844638329985 -8.169843566134505,39.22614564755613,4726.711600733478 -8.169832426134096,39.22611602174893,4739.656319055652 -8.169821300916292,39.22608644855255,4752.475547209786 -8.169810190485846,39.22605692751887,4765.169690568045 -8.169799094726484,39.226027458135974,4777.739149160342 -8.169788013376907,39.22599803984004,4790.184313974904 -8.169774516659533,39.22596222721526,4805.195750584728 -8.16976411055314,39.2259346292069,4816.659510034647 -8.169753716295322,39.225907074932515,4828.014123790889 -8.169743333750503,39.22587956401234,4839.259899226854 -8.169732962864227,39.225852096115226,4850.397133005184 -8.169722603609932,39.22582467089731,4861.426126020036 -8.16971102814456,39.22579403967106,4873.636654599154 -8.169699467054308,39.22576346086835,4885.712497393773 -8.169687920155003,39.22573293392977,4897.654058190759 -8.169676387215501,39.22570245829776,4909.461727614622 -8.169664867973307,39.225672033403285,4921.135892872212 -8.16965336216714,39.2256416586982,4932.676931413847 -8.169641869556155,39.22561133364276,4944.085219289995 -8.169628488959834,39.22557604557094,4957.216838585578 -8.169615125783372,39.22554082349535,4970.16914734595 -8.169601779831085,39.22550566663973,4982.942722099819 -8.169588450941102,39.22547057428258,4995.538113271163 -8.169569380275542,39.225420398588824,5013.277523464071 -8.169554162637027,39.22538038857944,5027.194425933002 -8.169538966654901,39.22534045958941,5040.880121579337 -8.169536930072677,39.22533511005964,5042.698225150533 -8.169534893884427,39.22532976196414,5044.512185138021 -8.16953285809751,39.22532441530087,5046.322003312941 -8.169528803698508,39.22531376812446,5049.915124156628 -8.169524750948582,39.22530312660036,5053.491830981083 -8.169520699875761,39.22529249071392,5057.052136672446 -8.169513333625163,39.225273153964146,5063.487805351331 -8.169505973069704,39.225253835696215,5069.869311355057 -8.169498618235592,39.22523453578716,5076.196743268932 -8.169491269065798,39.22521525411624,5082.470183574608 -8.169482771427106,39.22519296372083,5089.66260444855 -8.169474280955367,39.22517069740186,5096.782949669859 -8.169465797316526,39.22514845495771,5103.831340680995 -8.169457320179976,39.22512623618258,5110.807899597533 -8.169448849259934,39.225104040875856,5117.712747296 -8.169440384334068,39.225081868847106,5124.546002014933 -8.169431925251162,39.22505971991092,5131.30778100201 -8.169423471935195,39.22503759388736,5137.998200616056 -8.169408920926825,39.224999525346185,5149.35832931586 -8.169396857011279,39.22496797955583,5158.626907011668 -8.16938480548042,39.22493647915962,5167.750536462711 -8.16937276671585,39.22490502369677,5176.729539567602 -8.169360740995543,39.22487361269354,5185.564235548053 -8.169348728430204,39.224842245677124,5194.254935889189 -8.169336728940369,39.22481092214842,5202.801951032415 -8.169324742294462,39.22477964162785,5211.205579004205 -8.169312768153839,39.22474840363606,5219.466111162283 -8.169300806133547,39.22471720769952,5227.583832543259 -8.169288855849988,39.22468605332341,5235.5590299381565 -8.169276916976768,39.224654940038604,5243.391981451705 -8.169264989266745,39.224623867386065,5251.082960598961 -8.169253072562684,39.224592834921765,5258.632235760383 -8.169241166782115,39.224561842184265,5266.040077736586 -8.16922428261434,39.22451790847844,5276.3147377306395 -8.169207420522463,39.22447405275041,5286.305590168992 -8.16919058063381,39.22443027382854,5296.013350391422 -8.169173762998065,39.224386570578865,5305.438711630908 -8.169156967499504,39.22434294184591,5314.582356032199 -8.169140193858636,39.224299386496476,5323.4449460620635 -8.169123441656865,39.22425590341761,5332.027125538779 -8.169106710398948,39.224212491508865,5340.329522481776 -8.169089999581862,39.224169149690795,5348.352749323128 -8.169073308742187,39.22412587689966,5356.0974050242585 -8.169056637487776,39.22408267210257,5363.564073535759 -8.169036688010847,39.2240309939688,5372.14506326228 -8.169016765803711,39.223979410367754,5380.328743611893 -8.168996870543019,39.223927919629226,5388.116047911078 -8.168977001922912,39.22387652000345,5395.507898970472 -8.16895715959887,39.2238252096303,5402.505210725853 -8.16893026471612,39.223755694485476,5411.3744230365555 -8.168903416395201,39.223686335583665,5419.520356806181 -8.168876613269456,39.223617128243944,5426.945061510875 -8.168849853832894,39.223548067813525,5433.650482652354 -8.168823136515519,39.223479149530455,5439.638474023961 -8.168796459703351,39.22341036838393,5444.9108030726275 -8.168769821717408,39.22334171903533,5449.469141320936 -8.16874322078828,39.22327319578084,5453.3150446870995 -8.168716655044705,39.2232047925152,5456.449930374592 -8.168690122517376,39.22313650271046,5458.875049726199 -8.168663621158363,39.22306831947348,5460.591451802802 -8.168637148886045,39.223000235745765,5461.599935882286 -8.168612668339327,39.22293729510392,5461.902951940432 -8.168611844289186,39.22293517676231,5461.9026081816555 -8.16861096578897,39.22293291848406,5461.901094084258 -8.168610087316559,39.22293066030118,5461.898798759944 -8.168608330427285,39.22292614412583,5461.8926456522495 -8.168606573648757,39.222921628330475,5461.883367615699 -8.16860481698051,39.222917112913585,5461.870964624519 -8.168591810152186,39.22288368251994,5461.681824088841 -8.168578809183078,39.22285027225929,5461.321243908238 -8.168565813944971,39.222816881715765,5460.789174861086 -8.168552824354576,39.222783510628865,5460.0855455551 -8.168532254624427,39.2227306758247,5458.619197450626 -8.168514252123991,39.222684445560226,5456.980718447414 -8.168511832609369,39.222678239348795,5456.734548409614 -8.168509420827661,39.22267205936351,5456.485530387132 -8.168504612635278,39.22265975152541,5455.981815227934 -8.168499834995046,39.22264754731746,5455.466775408598 -8.168495087533776,39.22263544548672,5454.940477691797 -8.168461127836599,39.22254963188548,5450.738120399189 -8.168428645172192,39.22246883492327,5445.957852842146 -8.168397530213653,39.22239268920658,5440.62346502887 -8.168367689505388,39.222320883459524,5434.758124525954 -8.168324259568408,39.22221868328569,5424.793682837265 -8.168283391466737,39.22212525158675,5413.717374985261 -8.16824488266592,39.22203992615971,5401.610376351787 -8.168208556611388,39.22196213466635,5388.553857399653 -8.168174257345711,39.22189137629096,5374.62841045385 -8.168125798923063,39.22179649239352,5352.032370186091 -8.16808121175311,39.22171527922006,5327.885291394128 -8.168040063253097,39.221646379376594,5302.4335804458515 -8.168001945272316,39.221588517780354,5275.900007619262 -8.167966472987274,39.22154049517892,5248.481222462523 -8.16792735087727,39.22149477142099,5215.056636240745 -8.167890889612547,39.22145958467149,5180.862114850219 -8.167856589064685,39.22143337800891,5146.089701091631 -8.167824004449285,39.2214147659463,5110.891058744626 -8.167779605644556,39.221398937401105,5060.034665216128 -8.167737003665543,39.221393154247735,5008.799434313613 -8.167695702429533,39.22139499429079,4957.359610679545 -8.167655648016082,39.221402532496775,4905.838527805088 -8.167616834413545,39.22141424144241,4854.314368862926 -8.16759701564937,39.221421604816086,4827.397114819309 -8.167577518377454,39.22142962663091,4800.498525677568 -8.16755833844109,39.22143817891211,4773.622671597609 -8.167539472914033,39.221447149028506,4746.77269143605 -8.167496570948613,39.22146921323778,4684.101644754182 -8.167455345282391,39.22149200096934,4621.6056793536545 -8.167415772911202,39.22151474667009,4559.295332927787 -8.167377834996923,39.221536867891544,4497.177171182818 -8.167341516287312,39.22155793899626,4435.2529725642 -8.167290920821031,39.22158646326652,4344.29321348299 -8.167276537419964,39.22159430734173,4317.246071892661 -8.16726252724971,39.22160184480614,4290.236322233157 -8.167248936290102,39.221609087613494,4263.26424169246 -8.167235803382242,39.22161604562724,4236.329914743107 -8.167222558598258,39.221623046022344,4208.121419700115 -8.167209884359446,39.221629749239476,4179.9543582655315 -8.167197809297521,39.2216361624326,4151.828632490184 -8.167172926195029,39.22164956931109,4088.6508969646743 -8.16715143749781,39.22166159763719,4025.680070285314 -8.167133496713365,39.22167228945995,3962.913808448478 -8.167119215700737,39.221681677437395,3900.3495619174173 -8.167104429986736,39.22169377759627,3803.1504308910016 -8.167098867965775,39.22170288804693,3706.428100375627 -8.16709889386383,39.22170472960639,3682.321310800172 -8.167099434069291,39.221706434495196,3658.2443954069963 -8.167100444016551,39.22170803322363,3634.1975832493627 -8.167101884454606,39.22170955286052,3610.181118096639 -8.167104035741666,39.22171123986211,3582.5046082212502 -8.167106672870267,39.22171288171467,3554.8687592675356 -8.167109756178423,39.221714505630935,3527.2736166764676 -8.16711753175768,39.221717942348484,3469.571838666151 -8.16712685027358,39.221721584827016,3412.0480178417265 -8.16713752851536,39.221725556822875,3354.700743119969 -8.167149425323995,39.22172995271047,3297.528262809328 -8.167169843416934,39.221737693608695,3209.9995937343365 -8.167192594100511,39.22174677622254,3122.8727570351625 -8.16720120161018,39.22175033451728,3091.93098787712 -8.167210001611538,39.221754008660014,3061.039257470405 -8.167218923826942,39.22175774271061,3030.1975243494626 -8.167228204651897,39.22176160959643,2998.3868868711234 -8.167237495297732,39.22176544114941,2966.629304516461 -8.167246748927864,39.22176919891492,2934.9245469240045 -8.167264117831932,39.2217760387064,2874.7855378002146 -8.167280986946652,39.221782311456636,2814.8345817795102 -8.167297210775029,39.22178789796526,2755.0695724341713 -8.167312680815922,39.22179270947337,2695.488285289791 -8.167335798462437,39.22179866512602,2599.979899588226 -8.167343954965839,39.22180031319948,2563.8510674490462 -8.167351780890524,39.22180163676369,2527.7883513454362 -8.167359315469318,39.22180267917755,2491.7916352060706 -8.167366384450357,39.22180347255672,2456.9827361467846 -8.167373269249667,39.22180409858539,2422.235582952542 -8.167380002384771,39.221804592411814,2387.5499302173234 -8.167393173072172,39.221805286928365,2318.0076294533524 -8.16739791170722,39.221805478004015,2292.603457964783 -8.167402652336937,39.22180564212751,2267.2320074824875 -8.167407491803875,39.22180578077602,2241.8933289475435 -8.167412543091238,39.221805894088945,2216.587504121565 -8.167417904209495,39.22180598220583,2191.3145666631726 -8.1674236601415,39.22180604524521,2166.074508662481 -8.167434600948809,39.22180609520663,2123.0025544533532 -8.167447229812419,39.22180607268504,2080.0261666573138 -8.167461773664646,39.22180597807071,2037.1447521399439 -8.167478410866686,39.22180579467343,1994.3570283661556 -8.167494690626938,39.22180551666004,1957.1968568401278 -8.167512703985926,39.22180506888261,1920.1039341012627 -8.16753249430139,39.22180440469953,1883.0765858783243 -8.167554098807573,39.22180349288988,1846.1139950207698 -8.16757865831508,39.221802243157406,1807.5395650649364 -8.167605234170043,39.221800668857654,1769.034123006654 -8.16762308091654,39.22179949524091,1744.6667559003636 -8.167641623116124,39.221798181460024,1720.326163888549 -8.167660776121998,39.221796725786824,1696.011928171576 -8.167680462966382,39.2217951268341,1671.7236976162505 -8.167700618094658,39.22179338337137,1647.461217554612 -8.16772118435672,39.22179149434375,1623.2242857835183 -8.167761095818932,39.22178751600636,1577.4021895529413 -8.167802013761195,39.22178300753271,1531.6701110767149 -8.167843721433023,39.221777972487594,1486.0273661441975 -8.167886013018123,39.221772432300384,1440.4733889421561 -8.167908170336165,39.221769362668795,1416.8181400910141 -8.167930412121615,39.22176616913399,1393.186675662024 -8.167952720864314,39.22176285403992,1369.578908905527 -8.168022597123942,39.221751754744965,1296.0821453613828 -8.168092581868688,39.22173956301446,1222.812776945332 -8.168162388654082,39.22172634092537,1149.7689792871106 -8.168231783926654,39.22171214923168,1076.9492506019592 -8.168253566234348,39.22170747792342,1054.020912071007 -8.168275289615625,39.221702715178296,1031.1145672561702 -8.168296949346106,39.22169786309931,1008.230158603055 -8.168339831364802,39.221687956421235,962.7662459833313 -8.168382408267991,39.22167772764328,917.3887698429405 -8.168424652509,39.22166719361503,872.0973410721821 -8.168502819632476,39.22164668346682,787.496584220771 -8.168579650205757,39.22162523114464,703.1923423902268 -8.168635390374863,39.221608858492864,641.2494686589243 -8.168636798025535,39.22160843599766,639.6761212123911 -8.168638205182965,39.221608013214585,638.1028757114756 -8.168728754157872,39.22157991656194,535.9039247625811 -8.16873845122128,39.22157679909549,524.8418607382938 -8.168739780907583,39.22157636973615,523.3229222210466 -8.16874111012155,39.22157594014074,521.8040782561967 -8.168809153287885,39.221553446424814,443.4567329791502 -8.168875928929843,39.2215303861315,365.3592168022611 -8.168892421889415,39.221524539771366,345.8736658016977 -8.168908820353101,39.22151867032892,326.40366354744344 -8.168925099483387,39.22151279117977,306.9493218352108 -8.168942585562686,39.22150642293077,285.8691908807686 -8.168959864727185,39.22150008013768,264.80783009013857 -8.168976908298145,39.22149377870464,243.76534479452042 -8.169014014057524,39.22147991545762,196.8324478095303 -8.169018526465395,39.22147821723797,190.9999984761484</coordinates>
            </LineString>
        </Placemark>
    </Document>
</kml>
